{
"type": "FeatureCollection",
"name": "villages",
"crs": { "type": "name", "properties": { "name": "urn:ogc:def:crs:OGC:1.3:CRS84" } },
"features": [
{ "type": "Feature", "properties": { "name": "Village 1", "population": 1512 }, "geometry": { "type": "Point", "coordinates": [ 88.964276520768991, 23.212514130756173 ] } },
{ "type": "Feature", "properties": { "name": "Village 2", "population": 154 }, "geometry": { "type": "Point", "coordinates": [ 91.744583968300859, 23.633806270316462 ] } },
{ "type": "Feature", "properties": { "name": "Village 3", "population": 531 }, "geometry": { "type": "Point", "coordinates": [ 92.511237682175178, 26.053944424411217 ] } },
{ "type": "Feature", "properties": { "name": "Village 4", "population": 477 }, "geometry": { "type": "Point", "coordinates": [ 88.215167562789588, 26.503393360270003 ] } },
{ "type": "Feature", "properties": { "name": "Village 5", "population": 1677 }, "geometry": { "type": "Point", "coordinates": [ 89.109445634330925, 24.786403559238085 ] } },
{ "type": "Feature", "properties": { "name": "Village 6", "population": 802 }, "geometry": { "type": "Point", "coordinates": [ 94.961582672202766, 26.538988362585979 ] } },
{ "type": "Feature", "properties": { "name": "Village 7", "population": 1552 }, "geometry": { "type": "Point", "coordinates": [ 88.528154321156478, 24.936363549497369 ] } },
{ "type": "Feature", "properties": { "name": "Village 8", "population": 1491 }, "geometry": { "type": "Point", "coordinates": [ 88.97330462049473, 23.71862453734628 ] } },
{ "type": "Feature", "properties": { "name": "Village 9", "population": 1402 }, "geometry": { "type": "Point", "coordinates": [ 95.112463399688309, 24.73365655057852 ] } },
{ "type": "Feature", "properties": { "name": "Village 10", "population": 1239 }, "geometry": { "type": "Point", "coordinates": [ 92.664126945972868, 25.173975244396008 ] } },
{ "type": "Feature", "properties": { "name": "Village 11", "population": 1739 }, "geometry": { "type": "Point", "coordinates": [ 90.767448427973434, 28.019513590867021 ] } },
{ "type": "Feature", "properties": { "name": "Village 12", "population": 106 }, "geometry": { "type": "Point", "coordinates": [ 91.835425163524476, 23.63613205545866 ] } },
{ "type": "Feature", "properties": { "name": "Village 13", "population": 1347 }, "geometry": { "type": "Point", "coordinates": [ 92.971322143875994, 23.473901398119896 ] } },
{ "type": "Feature", "properties": { "name": "Village 14", "population": 137 }, "geometry": { "type": "Point", "coordinates": [ 90.064816118208469, 26.088261148894421 ] } },
{ "type": "Feature", "properties": { "name": "Village 15", "population": 1273 }, "geometry": { "type": "Point", "coordinates": [ 89.03476054650217, 28.298660336584042 ] } },
{ "type": "Feature", "properties": { "name": "Village 16", "population": 931 }, "geometry": { "type": "Point", "coordinates": [ 93.910296958779938, 27.98990319441236 ] } },
{ "type": "Feature", "properties": { "name": "Village 17", "population": 1947 }, "geometry": { "type": "Point", "coordinates": [ 93.027704380768625, 26.851342317815163 ] } },
{ "type": "Feature", "properties": { "name": "Village 18", "population": 1755 }, "geometry": { "type": "Point", "coordinates": [ 91.842867351123701, 23.367129106551104 ] } },
{ "type": "Feature", "properties": { "name": "Village 19", "population": 164 }, "geometry": { "type": "Point", "coordinates": [ 94.12552326977243, 27.43520783354489 ] } },
{ "type": "Feature", "properties": { "name": "Village 20", "population": 1834 }, "geometry": { "type": "Point", "coordinates": [ 92.118064516525195, 26.758561055601866 ] } },
{ "type": "Feature", "properties": { "name": "Village 21", "population": 404 }, "geometry": { "type": "Point", "coordinates": [ 95.356852294729791, 23.791616315880106 ] } },
{ "type": "Feature", "properties": { "name": "Village 22", "population": 761 }, "geometry": { "type": "Point", "coordinates": [ 89.53382095997533, 25.557190493150543 ] } },
{ "type": "Feature", "properties": { "name": "Village 23", "population": 1091 }, "geometry": { "type": "Point", "coordinates": [ 92.152977721489208, 23.271274604587436 ] } },
{ "type": "Feature", "properties": { "name": "Village 24", "population": 1780 }, "geometry": { "type": "Point", "coordinates": [ 91.627185226925405, 27.410317809065575 ] } },
{ "type": "Feature", "properties": { "name": "Village 25", "population": 722 }, "geometry": { "type": "Point", "coordinates": [ 90.649561412953361, 26.952488194535555 ] } },
{ "type": "Feature", "properties": { "name": "Village 26", "population": 1861 }, "geometry": { "type": "Point", "coordinates": [ 92.436964779617824, 27.42545454954929 ] } },
{ "type": "Feature", "properties": { "name": "Village 27", "population": 629 }, "geometry": { "type": "Point", "coordinates": [ 89.764759237506851, 27.182286023410974 ] } },
{ "type": "Feature", "properties": { "name": "Village 28", "population": 842 }, "geometry": { "type": "Point", "coordinates": [ 94.016520128338627, 24.469916673294836 ] } },
{ "type": "Feature", "properties": { "name": "Village 29", "population": 1861 }, "geometry": { "type": "Point", "coordinates": [ 94.505001638818115, 27.343572829714311 ] } },
{ "type": "Feature", "properties": { "name": "Village 30", "population": 1504 }, "geometry": { "type": "Point", "coordinates": [ 88.965697534208886, 24.370438552562234 ] } },
{ "type": "Feature", "properties": { "name": "Village 31", "population": 1374 }, "geometry": { "type": "Point", "coordinates": [ 91.50304905053703, 23.75842512865016 ] } },
{ "type": "Feature", "properties": { "name": "Village 32", "population": 762 }, "geometry": { "type": "Point", "coordinates": [ 90.07858669400278, 25.147145184850313 ] } },
{ "type": "Feature", "properties": { "name": "Village 33", "population": 66 }, "geometry": { "type": "Point", "coordinates": [ 88.623377483014323, 25.738121940900655 ] } },
{ "type": "Feature", "properties": { "name": "Village 34", "population": 349 }, "geometry": { "type": "Point", "coordinates": [ 94.719582311877758, 24.572021812003339 ] } },
{ "type": "Feature", "properties": { "name": "Village 35", "population": 661 }, "geometry": { "type": "Point", "coordinates": [ 91.224615190358762, 26.331805975046546 ] } },
{ "type": "Feature", "properties": { "name": "Village 36", "population": 1171 }, "geometry": { "type": "Point", "coordinates": [ 89.107684749715702, 26.313770510651668 ] } },
{ "type": "Feature", "properties": { "name": "Village 37", "population": 1749 }, "geometry": { "type": "Point", "coordinates": [ 93.050217679569329, 24.318997120178739 ] } },
{ "type": "Feature", "properties": { "name": "Village 38", "population": 218 }, "geometry": { "type": "Point", "coordinates": [ 89.516620208410288, 26.424121183079567 ] } },
{ "type": "Feature", "properties": { "name": "Village 39", "population": 162 }, "geometry": { "type": "Point", "coordinates": [ 94.760733090161324, 24.964891046547969 ] } },
{ "type": "Feature", "properties": { "name": "Village 40", "population": 1343 }, "geometry": { "type": "Point", "coordinates": [ 89.628611930638968, 27.040792792595624 ] } },
{ "type": "Feature", "properties": { "name": "Village 41", "population": 518 }, "geometry": { "type": "Point", "coordinates": [ 88.24806015533072, 24.597298733904079 ] } },
{ "type": "Feature", "properties": { "name": "Village 42", "population": 1627 }, "geometry": { "type": "Point", "coordinates": [ 89.505767156209146, 27.393363858622038 ] } },
{ "type": "Feature", "properties": { "name": "Village 43", "population": 1182 }, "geometry": { "type": "Point", "coordinates": [ 90.593109053167296, 25.283107644869752 ] } },
{ "type": "Feature", "properties": { "name": "Village 44", "population": 1835 }, "geometry": { "type": "Point", "coordinates": [ 91.516811225668633, 26.042821289345049 ] } },
{ "type": "Feature", "properties": { "name": "Village 45", "population": 929 }, "geometry": { "type": "Point", "coordinates": [ 94.796007541716705, 26.703404769284191 ] } },
{ "type": "Feature", "properties": { "name": "Village 46", "population": 923 }, "geometry": { "type": "Point", "coordinates": [ 93.230208165522228, 25.851075565257954 ] } },
{ "type": "Feature", "properties": { "name": "Village 47", "population": 1570 }, "geometry": { "type": "Point", "coordinates": [ 90.544904955568342, 24.416899909909212 ] } },
{ "type": "Feature", "properties": { "name": "Village 48", "population": 278 }, "geometry": { "type": "Point", "coordinates": [ 88.12657911323123, 28.386598725724788 ] } },
{ "type": "Feature", "properties": { "name": "Village 49", "population": 467 }, "geometry": { "type": "Point", "coordinates": [ 89.198677705787361, 23.528304737880394 ] } },
{ "type": "Feature", "properties": { "name": "Village 50", "population": 1809 }, "geometry": { "type": "Point", "coordinates": [ 95.47326906654753, 24.787080218641044 ] } },
{ "type": "Feature", "properties": { "name": "Village 51", "population": 325 }, "geometry": { "type": "Point", "coordinates": [ 91.447869849198881, 26.020117639453407 ] } },
{ "type": "Feature", "properties": { "name": "Village 52", "population": 1747 }, "geometry": { "type": "Point", "coordinates": [ 93.18279937239069, 23.157852597446336 ] } },
{ "type": "Feature", "properties": { "name": "Village 53", "population": 1412 }, "geometry": { "type": "Point", "coordinates": [ 88.410010460513789, 23.85202197350614 ] } },
{ "type": "Feature", "properties": { "name": "Village 54", "population": 1936 }, "geometry": { "type": "Point", "coordinates": [ 88.255377092102776, 27.39595430208329 ] } },
{ "type": "Feature", "properties": { "name": "Village 55", "population": 578 }, "geometry": { "type": "Point", "coordinates": [ 94.344175798337929, 27.310979100972862 ] } },
{ "type": "Feature", "properties": { "name": "Village 56", "population": 1208 }, "geometry": { "type": "Point", "coordinates": [ 92.409114555001452, 26.503315184177087 ] } },
{ "type": "Feature", "properties": { "name": "Village 57", "population": 131 }, "geometry": { "type": "Point", "coordinates": [ 90.315323074034211, 27.959898130519132 ] } },
{ "type": "Feature", "properties": { "name": "Village 58", "population": 1363 }, "geometry": { "type": "Point", "coordinates": [ 90.380324787110027, 27.155378718353806 ] } },
{ "type": "Feature", "properties": { "name": "Village 59", "population": 154 }, "geometry": { "type": "Point", "coordinates": [ 88.669279408133121, 24.643314568219068 ] } },
{ "type": "Feature", "properties": { "name": "Village 60", "population": 777 }, "geometry": { "type": "Point", "coordinates": [ 89.295022008314319, 26.546765894169535 ] } },
{ "type": "Feature", "properties": { "name": "Village 61", "population": 685 }, "geometry": { "type": "Point", "coordinates": [ 88.184395805988899, 24.87045300397563 ] } },
{ "type": "Feature", "properties": { "name": "Village 62", "population": 407 }, "geometry": { "type": "Point", "coordinates": [ 94.293436362795859, 27.124144381082971 ] } },
{ "type": "Feature", "properties": { "name": "Village 63", "population": 1106 }, "geometry": { "type": "Point", "coordinates": [ 91.497273979023745, 25.116365398644561 ] } },
{ "type": "Feature", "properties": { "name": "Village 64", "population": 618 }, "geometry": { "type": "Point", "coordinates": [ 88.954021870438979, 23.842838473169515 ] } },
{ "type": "Feature", "properties": { "name": "Village 65", "population": 222 }, "geometry": { "type": "Point", "coordinates": [ 93.544351555252689, 27.820511345241407 ] } },
{ "type": "Feature", "properties": { "name": "Village 66", "population": 1455 }, "geometry": { "type": "Point", "coordinates": [ 89.467396224589905, 26.797229960169805 ] } },
{ "type": "Feature", "properties": { "name": "Village 67", "population": 415 }, "geometry": { "type": "Point", "coordinates": [ 88.464401763613395, 27.095733065348718 ] } },
{ "type": "Feature", "properties": { "name": "Village 68", "population": 683 }, "geometry": { "type": "Point", "coordinates": [ 92.48794080493029, 26.077788529769212 ] } },
{ "type": "Feature", "properties": { "name": "Village 69", "population": 671 }, "geometry": { "type": "Point", "coordinates": [ 94.718183138059615, 27.306178897883424 ] } },
{ "type": "Feature", "properties": { "name": "Village 70", "population": 1398 }, "geometry": { "type": "Point", "coordinates": [ 88.202075585385273, 25.463303680082834 ] } },
{ "type": "Feature", "properties": { "name": "Village 71", "population": 1460 }, "geometry": { "type": "Point", "coordinates": [ 94.038519924187526, 26.111861723647838 ] } },
{ "type": "Feature", "properties": { "name": "Village 72", "population": 1029 }, "geometry": { "type": "Point", "coordinates": [ 89.426275125462553, 23.344100803158756 ] } },
{ "type": "Feature", "properties": { "name": "Village 73", "population": 204 }, "geometry": { "type": "Point", "coordinates": [ 88.696760662274102, 26.052877927761358 ] } },
{ "type": "Feature", "properties": { "name": "Village 74", "population": 925 }, "geometry": { "type": "Point", "coordinates": [ 88.134715267394171, 27.480319799547932 ] } },
{ "type": "Feature", "properties": { "name": "Village 75", "population": 1425 }, "geometry": { "type": "Point", "coordinates": [ 90.197313002590647, 26.880500380454333 ] } },
{ "type": "Feature", "properties": { "name": "Village 76", "population": 1936 }, "geometry": { "type": "Point", "coordinates": [ 93.45333807986438, 27.417337074310627 ] } },
{ "type": "Feature", "properties": { "name": "Village 77", "population": 1920 }, "geometry": { "type": "Point", "coordinates": [ 91.698842132560884, 25.728545158108908 ] } },
{ "type": "Feature", "properties": { "name": "Village 78", "population": 373 }, "geometry": { "type": "Point", "coordinates": [ 94.396899958408952, 27.84734324862006 ] } },
{ "type": "Feature", "properties": { "name": "Village 79", "population": 534 }, "geometry": { "type": "Point", "coordinates": [ 89.629084776411176, 23.595662859940187 ] } },
{ "type": "Feature", "properties": { "name": "Village 80", "population": 999 }, "geometry": { "type": "Point", "coordinates": [ 90.363870603575734, 27.816352913801889 ] } },
{ "type": "Feature", "properties": { "name": "Village 81", "population": 550 }, "geometry": { "type": "Point", "coordinates": [ 89.936056388909407, 25.04199322105821 ] } },
{ "type": "Feature", "properties": { "name": "Village 82", "population": 361 }, "geometry": { "type": "Point", "coordinates": [ 95.337258529856626, 23.500293924437699 ] } },
{ "type": "Feature", "properties": { "name": "Village 83", "population": 481 }, "geometry": { "type": "Point", "coordinates": [ 95.05754495988576, 26.406331601696106 ] } },
{ "type": "Feature", "properties": { "name": "Village 84", "population": 1878 }, "geometry": { "type": "Point", "coordinates": [ 90.555146318923818, 25.501909327936797 ] } },
{ "type": "Feature", "properties": { "name": "Village 85", "population": 1427 }, "geometry": { "type": "Point", "coordinates": [ 91.270011276942483, 25.356049313930033 ] } },
{ "type": "Feature", "properties": { "name": "Village 86", "population": 1002 }, "geometry": { "type": "Point", "coordinates": [ 90.357397215278894, 27.686159726680053 ] } },
{ "type": "Feature", "properties": { "name": "Village 87", "population": 1135 }, "geometry": { "type": "Point", "coordinates": [ 93.598816879790576, 23.757852520920103 ] } },
{ "type": "Feature", "properties": { "name": "Village 88", "population": 697 }, "geometry": { "type": "Point", "coordinates": [ 88.300098269148933, 26.393141451221325 ] } },
{ "type": "Feature", "properties": { "name": "Village 89", "population": 1120 }, "geometry": { "type": "Point", "coordinates": [ 88.50579199819019, 25.275625816318051 ] } },
{ "type": "Feature", "properties": { "name": "Village 90", "population": 378 }, "geometry": { "type": "Point", "coordinates": [ 91.030281906013045, 25.905423152152984 ] } },
{ "type": "Feature", "properties": { "name": "Village 91", "population": 168 }, "geometry": { "type": "Point", "coordinates": [ 89.838205383355486, 25.746751593476791 ] } },
{ "type": "Feature", "properties": { "name": "Village 92", "population": 1208 }, "geometry": { "type": "Point", "coordinates": [ 94.339187362759205, 23.73770991320356 ] } },
{ "type": "Feature", "properties": { "name": "Village 93", "population": 1139 }, "geometry": { "type": "Point", "coordinates": [ 93.563553223564682, 25.81608460114343 ] } },
{ "type": "Feature", "properties": { "name": "Village 94", "population": 827 }, "geometry": { "type": "Point", "coordinates": [ 92.09345486892218, 27.741580197607597 ] } },
{ "type": "Feature", "properties": { "name": "Village 95", "population": 942 }, "geometry": { "type": "Point", "coordinates": [ 92.961066357351257, 23.941788348915548 ] } },
{ "type": "Feature", "properties": { "name": "Village 96", "population": 298 }, "geometry": { "type": "Point", "coordinates": [ 93.192093300136932, 23.063078904512391 ] } },
{ "type": "Feature", "properties": { "name": "Village 97", "population": 1702 }, "geometry": { "type": "Point", "coordinates": [ 93.857911175487573, 23.371609132197992 ] } },
{ "type": "Feature", "properties": { "name": "Village 98", "population": 113 }, "geometry": { "type": "Point", "coordinates": [ 94.956269478367616, 25.528876367243054 ] } },
{ "type": "Feature", "properties": { "name": "Village 99", "population": 982 }, "geometry": { "type": "Point", "coordinates": [ 89.123013803408, 28.359486295303785 ] } },
{ "type": "Feature", "properties": { "name": "Village 100", "population": 813 }, "geometry": { "type": "Point", "coordinates": [ 92.695976183090366, 23.243302944431374 ] } },
{ "type": "Feature", "properties": { "name": "Village 101", "population": 1570 }, "geometry": { "type": "Point", "coordinates": [ 89.077160823350169, 28.450112323733798 ] } },
{ "type": "Feature", "properties": { "name": "Village 102", "population": 1187 }, "geometry": { "type": "Point", "coordinates": [ 91.323482059635225, 25.948291952338771 ] } },
{ "type": "Feature", "properties": { "name": "Village 103", "population": 416 }, "geometry": { "type": "Point", "coordinates": [ 93.897135914677989, 23.660771495688849 ] } },
{ "type": "Feature", "properties": { "name": "Village 104", "population": 1061 }, "geometry": { "type": "Point", "coordinates": [ 94.710233452646094, 25.301966562597521 ] } },
{ "type": "Feature", "properties": { "name": "Village 105", "population": 1219 }, "geometry": { "type": "Point", "coordinates": [ 93.694211155933971, 24.140480387443525 ] } },
{ "type": "Feature", "properties": { "name": "Village 106", "population": 1805 }, "geometry": { "type": "Point", "coordinates": [ 88.265561530611947, 26.927833074521363 ] } },
{ "type": "Feature", "properties": { "name": "Village 107", "population": 1064 }, "geometry": { "type": "Point", "coordinates": [ 90.695590573253327, 25.978325297560758 ] } },
{ "type": "Feature", "properties": { "name": "Village 108", "population": 1827 }, "geometry": { "type": "Point", "coordinates": [ 89.222926243161467, 24.583779736940663 ] } },
{ "type": "Feature", "properties": { "name": "Village 109", "population": 713 }, "geometry": { "type": "Point", "coordinates": [ 95.491018657243018, 24.404824501868926 ] } },
{ "type": "Feature", "properties": { "name": "Village 110", "population": 1875 }, "geometry": { "type": "Point", "coordinates": [ 89.080115182225285, 27.768372801701645 ] } },
{ "type": "Feature", "properties": { "name": "Village 111", "population": 1890 }, "geometry": { "type": "Point", "coordinates": [ 89.832358321348622, 27.214331132247125 ] } },
{ "type": "Feature", "properties": { "name": "Village 112", "population": 1609 }, "geometry": { "type": "Point", "coordinates": [ 90.679147845846458, 25.399017731411625 ] } },
{ "type": "Feature", "properties": { "name": "Village 113", "population": 1712 }, "geometry": { "type": "Point", "coordinates": [ 88.456650271818916, 25.2303117837155 ] } },
{ "type": "Feature", "properties": { "name": "Village 114", "population": 981 }, "geometry": { "type": "Point", "coordinates": [ 94.527886877824997, 27.056100985011007 ] } },
{ "type": "Feature", "properties": { "name": "Village 115", "population": 1879 }, "geometry": { "type": "Point", "coordinates": [ 92.772710663973427, 28.33904045925685 ] } },
{ "type": "Feature", "properties": { "name": "Village 116", "population": 1071 }, "geometry": { "type": "Point", "coordinates": [ 89.198111799688149, 23.437759473947089 ] } },
{ "type": "Feature", "properties": { "name": "Village 117", "population": 1203 }, "geometry": { "type": "Point", "coordinates": [ 91.737014182844121, 23.874959890374789 ] } },
{ "type": "Feature", "properties": { "name": "Village 118", "population": 824 }, "geometry": { "type": "Point", "coordinates": [ 88.590023189762178, 24.992796849030476 ] } },
{ "type": "Feature", "properties": { "name": "Village 119", "population": 1183 }, "geometry": { "type": "Point", "coordinates": [ 92.582348405199212, 25.792431365580118 ] } },
{ "type": "Feature", "properties": { "name": "Village 120", "population": 829 }, "geometry": { "type": "Point", "coordinates": [ 89.737474210730937, 23.392748108171084 ] } }
]
}
